[{"OBJECT_NAME":"DMSP 5D-3 F16 (USA 172)","OBJECT_ID":"2003-048A","EPOCH":"2026-03-27T20:58:40.999296","MEAN_MOTION":14.14468976,"ECCENTRICITY":0.0007428,"INCLINATION":98.997,"RA_OF_ASC_NODE":110.1374,"ARG_OF_PERICENTER":26.1395,"MEAN_ANOMALY":323.9281,"EPHEMERIS_TYPE":0,"CLASSIFICATION_TYPE":"U","NORAD_CAT_ID":28054,"ELEMENT_SET_NO":999,"REV_AT_EPOCH":15798,"BSTAR":0.00010407,"MEAN_MOTION_DOT":1.54e-6,"MEAN_MOTION_DDOT":0},{"OBJECT_NAME":"METEOSAT-9 (MSG-2)","OBJECT_ID":"2005-049B","EPOCH":"2026-03-27T13:19:48.760608","MEAN_MOTION":1.00272431,"ECCENTRICITY":1.94e-5,"INCLINATION":9.179,"RA_OF_ASC_NODE":54.9529,"ARG_OF_PERICENTER":126.4362,"MEAN_ANOMALY":249.1755,"EPHEMERIS_TYPE":0,"CLASSIFICATION_TYPE":"U","NORAD_CAT_ID":28912,"ELEMENT_SET_NO":999,"REV_AT_EPOCH":618,"BSTAR":0,"MEAN_MOTION_DOT":1.11e-6,"MEAN_MOTION_DDOT":0}]
